ONEWEB-0283             
1 49001U 21060AL  26005.14787127  .00000204  00000+0  50128-3 0  9997
2 49001  87.9041 261.2449 0001520  66.3125 293.8165 13.16594262218165
ONEWEB-0284             
1 49002U 21060AM  26005.14153425  .00000188  00000+0  45766-3 0  9999
2 49002  87.9043 261.2363 0001128  79.4109 280.7149 13.16593711218147
ONEWEB-0285             
1 49075U 21075A   26005.44566166 -.00000443  00000+0 -12674-2 0  9995
2 49075  87.8923  22.9773 0001675  90.6634 269.4687 13.12440679213860
ONEWEB-0286             
1 49076U 21075B   26005.50470919  .00000368  00000+0  98625-3 0  9998
2 49076  87.8919  22.9973 0001932  95.4057 264.7292 13.12441549213223
ONEWEB-0287             
1 49077U 21075C   26005.51137747  .00000067  00000+0  13994-3 0  9991
2 49077  87.9095  38.2057 0002078 105.6772 254.4589 13.17647214212207
ONEWEB-0288             
1 49078U 21075D   26005.48113203  .00000379  00000+0  10178-2 0  9995
2 49078  87.8924  22.9656 0001652  94.9223 265.2095 13.12446337213842
ONEWEB-0289             
1 49079U 21075E   26005.47412675  .00000223  00000+0  54215-3 0  9999
2 49079  87.9086  38.2261 0001383 101.6901 258.4386 13.17648033212775
ONEWEB-0290             
1 49080U 21075F   26005.44726380  .00000150  00000+0  35358-3 0  9995
2 49080  87.9095  38.1957 0001167  89.1758 270.9507 13.17649888212186
